{"fetched_at":"2026-07-13T07:48:41.765Z","source":"https://celestrak.org/NORAD/elements/gp.php?NAME=SENTINEL&FORMAT=JSON","constellation":"sentinel-1","records":[{"OBJECT_NAME":"SENTINEL-1A","OBJECT_ID":"2014-016A","EPOCH":"2026-07-12T21:01:30.389088","CLASSIFICATION_TYPE":"U","MEAN_MOTION":14.59200098,"ECCENTRICITY":0.0001447,"INCLINATION":98.1784,"RA_OF_ASC_NODE":201.0336,"ARG_OF_PERICENTER":85.886,"MEAN_ANOMALY":274.2505,"EPHEMERIS_TYPE":0,"NORAD_CAT_ID":39634,"ELEMENT_SET_NO":999,"REV_AT_EPOCH":65376,"BSTAR":0.000012661,"MEAN_MOTION_DOT":1.4e-7,"MEAN_MOTION_DDOT":0},{"OBJECT_NAME":"SENTINEL-1C","OBJECT_ID":"2024-235A","EPOCH":"2026-07-12T20:19:30.173664","CLASSIFICATION_TYPE":"U","MEAN_MOTION":14.59196968,"ECCENTRICITY":0.0001301,"INCLINATION":98.1824,"RA_OF_ASC_NODE":200.7905,"ARG_OF_PERICENTER":89.8004,"MEAN_ANOMALY":270.3345,"EPHEMERIS_TYPE":0,"NORAD_CAT_ID":62261,"ELEMENT_SET_NO":999,"REV_AT_EPOCH":8515,"BSTAR":-0.000041513,"MEAN_MOTION_DOT":-0.00000241,"MEAN_MOTION_DDOT":0},{"OBJECT_NAME":"SENTINEL-1D","OBJECT_ID":"2025-251A","EPOCH":"2026-07-12T12:55:22.761696","CLASSIFICATION_TYPE":"U","MEAN_MOTION":14.59196831,"ECCENTRICITY":0.00014023,"INCLINATION":98.1831,"RA_OF_ASC_NODE":200.5414,"ARG_OF_PERICENTER":90.2222,"MEAN_ANOMALY":269.9138,"EPHEMERIS_TYPE":0,"NORAD_CAT_ID":66315,"ELEMENT_SET_NO":999,"REV_AT_EPOCH":3642,"BSTAR":-0.000042968618,"MEAN_MOTION_DOT":-0.00000248,"MEAN_MOTION_DDOT":0}]}
