SENTINEL-1A             
1 39634U 14016A   26193.87604617  .00000014  00000+0  12661-4 0  9991
2 39634  98.1784 201.0336 0001447  85.8860 274.2505 14.59200098653760
SENTINEL-1C             
1 62261U 24235A   26193.84687701 -.00000241  00000+0 -41513-4 0  9991
2 62261  98.1824 200.7905 0001301  89.8004 270.3345 14.59196968 85159
SENTINEL-1D             
1 66315U 25251A   26193.53845789 -.00000248  00000+0 -42969-4 0  9995
2 66315  98.1831 200.5414 0001402  90.2222 269.9138 14.59196831 36423
